{"type": "FeatureCollection", "features": [ {"type": "Feature", "properties": {"norad_id": 66625, "name": "STARLINK-35929", "group": "last-30-days", "lat": -24.30945234931611, "lon": 100.29098488750326, "alt_km": 450.79505769376556, "timestamp": "2025-12-26T21:25:51.732051+00:00", "meta": {"OBJECT_NAME": "STARLINK-35929", "OBJECT_ID": "2025-271J", "EPOCH": "2025-12-26T15:20:00.070080", "MEAN_MOTION": 15.39616872, "ECCENTRICITY": 0.00010826, "INCLINATION": 53.16, "RA_OF_ASC_NODE": 121.2837, "ARG_OF_PERICENTER": 75.7835, "MEAN_ANOMALY": 284.329, "EPHEMERIS_TYPE": 0, "CLASSIFICATION_TYPE": "U", "NORAD_CAT_ID": 66625, "ELEMENT_SET_NO": 999, "REV_AT_EPOCH": 635, "BSTAR": 0.0016867749, "MEAN_MOTION_DOT": 0.00067664, "MEAN_MOTION_DDOT": 0}, "tle": {"line1": "1 66625U 25271J   25360.63888970  .00067664  00000+0  16868-2 0  9996", "line2": "2 66625  53.1600 121.2837 0001082  75.7835 284.3290 15.39616872  6352"}}, "geometry": {"type": "Point", "coordinates": [100.29098488750326, -24.30945234931611]}}, {"type": "Feature", "properties": {"norad_id": 66626, "name": "STARLINK-35902", "group": "last-30-days", "lat": -49.54176601488039, "lon": 1.773088910152651, "alt_km": 452.15771456579296, "timestamp": "2025-12-26T21:25:51.732062+00:00", "meta": {"OBJECT_NAME": "STARLINK-35902", "OBJECT_ID": "2025-271K", "EPOCH": "2025-12-26T14:06:34.830432", "MEAN_MOTION": 15.396505, "ECCENTRICITY": 0.00017144, "INCLINATION": 53.16, "RA_OF_ASC_NODE": 121.6768, "ARG_OF_PERICENTER": 142.6362, "MEAN_ANOMALY": 217.4763, "EPHEMERIS_TYPE": 0, "CLASSIFICATION_TYPE": "U", "NORAD_CAT_ID": 66626, "ELEMENT_SET_NO": 999, "REV_AT_EPOCH": 634, "BSTAR": 0.001090385, "MEAN_MOTION_DOT": 0.00043508, "MEAN_MOTION_DDOT": 0}, "tle": {"line1": "1 66626U 25271K   25360.58790313  .00043508  00000+0  10904-2 0  9990", "line2": "2 66626  53.1600 121.6768 0001714 142.6362 217.4763 15.39650500  6348"}}, "geometry": {"type": "Point", "coordinates": [1.773088910152651, -49.54176601488039]}}, {"type": "Feature", "properties": {"norad_id": 66627, "name": "STARLINK-35904", "group": "last-30-days", "lat": -41.95625440865905, "lon": 77.75887393618488, "alt_km": 452.079099865221, "timestamp": "2025-12-26T21:25:51.732072+00:00", "meta": {"OBJECT_NAME": "STARLINK-35904", "OBJECT_ID": "2025-271L", "EPOCH": "2025-12-26T15:26:41.290944", "MEAN_MOTION": 15.39625966, "ECCENTRICITY": 0.00012285, "INCLINATION": 53.1601, "RA_OF_ASC_NODE": 121.3118, "ARG_OF_PERICENTER": 69.8417, "MEAN_ANOMALY": 290.272, "EPHEMERIS_TYPE": 0, "CLASSIFICATION_TYPE": "U", "NORAD_CAT_ID": 66627, "ELEMENT_SET_NO": 999, "REV_AT_EPOCH": 631, "BSTAR": 0.0017395904, "MEAN_MOTION_DOT": 0.00069836, "MEAN_MOTION_DDOT": 0}, "tle": {"line1": "1 66627U 25271L   25360.64353346  .00069836  00000+0  17396-2 0  9993", "line2": "2 66627  53.1601 121.3118 0001228  69.8417 290.2720 15.39625966  6314"}}, "geometry": {"type": "Point", "coordinates": [77.75887393618488, -41.95625440865905]}}, {"type": "Feature", "properties": {"norad_id": 66628, "name": "STARLINK-35862", "group": "last-30-days", "lat": 50.2492062965574, "lon": -175.77676621212964, "alt_km": 439.6355798013983, "timestamp": "2025-12-26T21:25:51.732082+00:00", "meta": {"OBJECT_NAME": "STARLINK-35862", "OBJECT_ID": "2025-271M", "EPOCH": "2025-12-26T14:00:04.000032", "MEAN_MOTION": 15.39601868, "ECCENTRICITY": 0.00012802, "INCLINATION": 53.1598, "RA_OF_ASC_NODE": 121.3374, "ARG_OF_PERICENTER": 80.1546, "MEAN_ANOMALY": 76.9574, "EPHEMERIS_TYPE": 0, "CLASSIFICATION_TYPE": "U", "NORAD_CAT_ID": 66628, "ELEMENT_SET_NO": 999, "REV_AT_EPOCH": 603, "BSTAR": 0.0004358198, "MEAN_MOTION_DOT": 0.00017061, "MEAN_MOTION_DDOT": 0}, "tle": {"line1": "1 66628U 25271M   25360.58337963  .00017061  00000+0  43582-3 0  9994", "line2": "2 66628  53.1598 121.3374 0001280  80.1546  76.9574 15.39601868  6031"}}, "geometry": {"type": "Point", "coordinates": [-175.77676621212964, 50.2492062965574]}}, {"type": "Feature", "properties": {"norad_id": 66629, "name": "STARLINK-35956", "group": "last-30-days", "lat": 24.10393907720724, "lon": 138.8582780312759, "alt_km": 386.9984290576749, "timestamp": "2025-12-26T21:25:51.732093+00:00", "meta": {"OBJECT_NAME": "STARLINK-35956", "OBJECT_ID": "2025-271N", "EPOCH": "2025-12-26T15:08:14.976960", "MEAN_MOTION": 15.56787472, "ECCENTRICITY": 0.00097635, "INCLINATION": 53.1715, "RA_OF_ASC_NODE": 120.5364, "ARG_OF_PERICENTER": 28.6972, "MEAN_ANOMALY": 331.4576, "EPHEMERIS_TYPE": 0, "CLASSIFICATION_TYPE": "U", "NORAD_CAT_ID": 66629, "ELEMENT_SET_NO": 999, "REV_AT_EPOCH": 122, "BSTAR": 0.0063821681, "MEAN_MOTION_DOT": 0.00495392, "MEAN_MOTION_DDOT": 0}, "tle": {"line1": "1 66629U 25271N   25360.63072890  .00495392  00000+0  63822-2 0  9991", "line2": "2 66629  53.1715 120.5364 0009763  28.6972 331.4576 15.56787472  1229"}}, "geometry": {"type": "Point", "coordinates": [138.8582780312759, 24.10393907720724]}}, {"type": "Feature", "properties": {"norad_id": 66630, "name": "STARLINK-35949", "group": "last-30-days", "lat": 52.42614378284233, "lon": -137.18794513555937, "alt_km": 439.84568243145895, "timestamp": "2025-12-26T21:25:51.732103+00:00", "meta": {"OBJECT_NAME": "STARLINK-35949", "OBJECT_ID": "2025-271P", "EPOCH": "2025-12-26T14:00:04.000032", "MEAN_MOTION": 15.39610343, "ECCENTRICITY": 5.109e-05, "INCLINATION": 53.1602, "RA_OF_ASC_NODE": 121.2887, "ARG_OF_PERICENTER": 83.9699, "MEAN_ANOMALY": 97.0383, "EPHEMERIS_TYPE": 0, "CLASSIFICATION_TYPE": "U", "NORAD_CAT_ID": 66630, "ELEMENT_SET_NO": 999, "REV_AT_EPOCH": 598, "BSTAR": 0.00037786786, "MEAN_MOTION_DOT": 0.0001474, "MEAN_MOTION_DDOT": 0}, "tle": {"line1": "1 66630U 25271P   25360.58337963  .00014740  00000+0  37787-3 0  9998", "line2": "2 66630  53.1602 121.2887 0000510  83.9699  97.0383 15.39610343  5986"}}, "geometry": {"type": "Point", "coordinates": [-137.18794513555937, 52.42614378284233]}}, {"type": "Feature", "properties": {"norad_id": 66631, "name": "STARLINK-35965", "group": "last-30-days", "lat": 52.05254395494534, "lon": -134.20425099434402, "alt_km": 439.90901532778753, "timestamp": "2025-12-26T21:25:51.732117+00:00", "meta": {"OBJECT_NAME": "STARLINK-35965", "OBJECT_ID": "2025-271Q", "EPOCH": "2025-12-26T14:00:04.000032", "MEAN_MOTION": 15.39588343, "ECCENTRICITY": 6.694e-05, "INCLINATION": 53.16, "RA_OF_ASC_NODE": 121.2855, "ARG_OF_PERICENTER": 67.9129, "MEAN_ANOMALY": 114.981, "EPHEMERIS_TYPE": 0, "CLASSIFICATION_TYPE": "U", "NORAD_CAT_ID": 66631, "ELEMENT_SET_NO": 999, "REV_AT_EPOCH": 608, "BSTAR": 0.00037122514, "MEAN_MOTION_DOT": 0.00014462, "MEAN_MOTION_DDOT": 0}, "tle": {"line1": "1 66631U 25271Q   25360.58337963  .00014462  00000+0  37123-3 0  9994", "line2": "2 66631  53.1600 121.2855 0000669  67.9129 114.9810 15.39588343  6085"}}, "geometry": {"type": "Point", "coordinates": [-134.20425099434402, 52.05254395494534]}}, {"type": "Feature", "properties": {"norad_id": 66632, "name": "STARLINK-35973", "group": "last-30-days", "lat": -16.43205739239922, "lon": -46.88932215263657, "alt_km": 450.47550451664483, "timestamp": "2025-12-26T21:25:51.732130+00:00", "meta": {"OBJECT_NAME": "STARLINK-35973", "OBJECT_ID": "2025-271R", "EPOCH": "2025-12-25T19:38:14.121600", "MEAN_MOTION": 15.39623686, "ECCENTRICITY": 0.00014116, "INCLINATION": 53.1597, "RA_OF_ASC_NODE": 125.4024, "ARG_OF_PERICENTER": 47.8203, "MEAN_ANOMALY": 312.2922, "EPHEMERIS_TYPE": 0, "CLASSIFICATION_TYPE": "U", "NORAD_CAT_ID": 66632, "ELEMENT_SET_NO": 999, "REV_AT_EPOCH": 618, "BSTAR": 0.0013165644, "MEAN_MOTION_DOT": 0.00052633, "MEAN_MOTION_DDOT": 0}, "tle": {"line1": "1 66632U 25271R   25359.81821900  .00052633  00000+0  13166-2 0  9990", "line2": "2 66632  53.1597 125.4024 0001411  47.8203 312.2922 15.39623686  6189"}}, "geometry": {"type": "Point", "coordinates": [-46.88932215263657, -16.43205739239922]}}, {"type": "Feature", "properties": {"norad_id": 66633, "name": "STARLINK-35948", "group": "last-30-days", "lat": -17.729188213682733, "lon": -45.794333855112725, "alt_km": 449.44815607565397, "timestamp": "2025-12-26T21:25:51.732141+00:00", "meta": {"OBJECT_NAME": "STARLINK-35948", "OBJECT_ID": "2025-271S", "EPOCH": "2025-12-26T14:19:28.764480", "MEAN_MOTION": 15.39655709, "ECCENTRICITY": 0.00015828, "INCLINATION": 53.1609, "RA_OF_ASC_NODE": 121.7338, "ARG_OF_PERICENTER": 138.0885, "MEAN_ANOMALY": 222.0241, "EPHEMERIS_TYPE": 0, "CLASSIFICATION_TYPE": "U", "NORAD_CAT_ID": 66633, "ELEMENT_SET_NO": 999, "REV_AT_EPOCH": 634, "BSTAR": 0.0010417154, "MEAN_MOTION_DOT": 0.00041545, "MEAN_MOTION_DDOT": 0}, "tle": {"line1": "1 66633U 25271S   25360.59686070  .00041545  00000+0  10417-2 0  9991", "line2": "2 66633  53.1609 121.7338 0001582 138.0885 222.0241 15.39655709  6340"}}, "geometry": {"type": "Point", "coordinates": [-45.794333855112725, -17.729188213682733]}}, {"type": "Feature", "properties": {"norad_id": 66634, "name": "STARLINK-35967", "group": "last-30-days", "lat": -36.5717765657343, "lon": -25.923375483866877, "alt_km": 451.77578329969856, "timestamp": "2025-12-26T21:25:51.732151+00:00", "meta": {"OBJECT_NAME": "STARLINK-35967", "OBJECT_ID": "2025-271T", "EPOCH": "2025-12-26T14:12:47.342304", "MEAN_MOTION": 15.39676406, "ECCENTRICITY": 0.00010638, "INCLINATION": 53.1614, "RA_OF_ASC_NODE": 121.7017, "ARG_OF_PERICENTER": 81.6663, "MEAN_ANOMALY": 278.4463, "EPHEMERIS_TYPE": 0, "CLASSIFICATION_TYPE": "U", "NORAD_CAT_ID": 66634, "ELEMENT_SET_NO": 999, "REV_AT_EPOCH": 630, "BSTAR": 0.001418721, "MEAN_MOTION_DOT": 0.00056878, "MEAN_MOTION_DDOT": 0}, "tle": {"line1": "1 66634U 25271T   25360.59221461  .00056878  00000+0  14187-2 0  9994", "line2": "2 66634  53.1614 121.7017 0001063  81.6663 278.4463 15.39676406  6306"}}, "geometry": {"type": "Point", "coordinates": [-25.923375483866877, -36.5717765657343]}}]}